{"type": "FeatureCollection", "features": [ {"type": "Feature", "properties": {"norad_id": 66777, "name": "TRANSPORTER-15DR", "group": "last-30-days", "lat": 26.22726975165755, "lon": -104.50646386201352, "alt_km": 506.4411936090719, "timestamp": "2025-12-26T04:40:04.511309+00:00", "meta": {"OBJECT_NAME": "TRANSPORTER-15DR", "OBJECT_ID": "2025-276DR", "EPOCH": "2025-12-25T21:40:15.401856", "MEAN_MOTION": 15.18987764, "ECCENTRICITY": 0.00034924, "INCLINATION": 97.4461, "RA_OF_ASC_NODE": 71.512, "ARG_OF_PERICENTER": 105.9186, "MEAN_ANOMALY": 254.2433, "EPHEMERIS_TYPE": 0, "CLASSIFICATION_TYPE": "U", "NORAD_CAT_ID": 66777, "ELEMENT_SET_NO": 999, "REV_AT_EPOCH": 412, "BSTAR": 0.00059063115, "MEAN_MOTION_DOT": 0.000123, "MEAN_MOTION_DDOT": 0}, "tle": {"line1": "1 66777U 25276DR  25359.90295604  .00012300  00000+0  59063-3 0  9995", "line2": "2 66777  97.4461  71.5120 0003492 105.9186 254.2433 15.18987764  4126"}}, "geometry": {"type": "Point", "coordinates": [-104.50646386201352, 26.22726975165755]}}, {"type": "Feature", "properties": {"norad_id": 66778, "name": "TRANSPORTER-15DS", "group": "last-30-days", "lat": -28.422102944894736, "lon": 75.76179021934617, "alt_km": 520.4195426563956, "timestamp": "2025-12-26T04:40:04.511348+00:00", "meta": {"OBJECT_NAME": "TRANSPORTER-15DS", "OBJECT_ID": "2025-276DS", "EPOCH": "2025-12-18T19:26:21.991200", "MEAN_MOTION": 15.16535337, "ECCENTRICITY": 0.00032319, "INCLINATION": 97.4427, "RA_OF_ASC_NODE": 64.4586, "ARG_OF_PERICENTER": 41.3734, "MEAN_ANOMALY": 318.7744, "EPHEMERIS_TYPE": 0, "CLASSIFICATION_TYPE": "U", "NORAD_CAT_ID": 66778, "ELEMENT_SET_NO": 999, "REV_AT_EPOCH": 304, "BSTAR": 0.00025483693, "MEAN_MOTION_DOT": 4.904e-05, "MEAN_MOTION_DDOT": 0}, "tle": {"line1": "1 66778U 25276DS  25352.80997675  .00004904  00000+0  25484-3 0  9996", "line2": "2 66778  97.4427  64.4586 0003231  41.3734 318.7744 15.16535337  3043"}}, "geometry": {"type": "Point", "coordinates": [75.76179021934617, -28.422102944894736]}}, {"type": "Feature", "properties": {"norad_id": 66791, "name": "STARLINK-35867", "group": "last-30-days", "lat": -6.977277301423084, "lon": 164.10592542949456, "alt_km": 444.02638502534137, "timestamp": "2025-12-26T04:40:04.511376+00:00", "meta": {"OBJECT_NAME": "STARLINK-35867", "OBJECT_ID": "2025-278A", "EPOCH": "2025-12-25T22:00:01.999584", "MEAN_MOTION": 15.4085621, "ECCENTRICITY": 0.00015893, "INCLINATION": 43.0003, "RA_OF_ASC_NODE": 173.2538, "ARG_OF_PERICENTER": 301.4513, "MEAN_ANOMALY": 305.6087, "EPHEMERIS_TYPE": 0, "CLASSIFICATION_TYPE": "U", "NORAD_CAT_ID": 66791, "ELEMENT_SET_NO": 999, "REV_AT_EPOCH": 507, "BSTAR": -0.0086893101, "MEAN_MOTION_DOT": -0.00348992, "MEAN_MOTION_DDOT": 0}, "tle": {"line1": "1 66791U 25278A   25359.91668981 -.00348992  00000+0 -86893-2 0  9997", "line2": "2 66791  43.0003 173.2538 0001589 301.4513 305.6087 15.40856210  5073"}}, "geometry": {"type": "Point", "coordinates": [164.10592542949456, -6.977277301423084]}}, {"type": "Feature", "properties": {"norad_id": 66792, "name": "STARLINK-35990", "group": "last-30-days", "lat": 23.480876303568337, "lon": -160.67265684696457, "alt_km": 411.9545659375526, "timestamp": "2025-12-26T04:40:04.511388+00:00", "meta": {"OBJECT_NAME": "STARLINK-35990", "OBJECT_ID": "2025-278B", "EPOCH": "2025-12-25T22:00:01.999584", "MEAN_MOTION": 15.5049911, "ECCENTRICITY": 0.00016442, "INCLINATION": 43.0004, "RA_OF_ASC_NODE": 173.1659, "ARG_OF_PERICENTER": 272.8989, "MEAN_ANOMALY": 10.3669, "EPHEMERIS_TYPE": 0, "CLASSIFICATION_TYPE": "U", "NORAD_CAT_ID": 66792, "ELEMENT_SET_NO": 999, "REV_AT_EPOCH": 507, "BSTAR": 0.0017991608, "MEAN_MOTION_DOT": 0.00106349, "MEAN_MOTION_DDOT": 0}, "tle": {"line1": "1 66792U 25278B   25359.91668981  .00106349  00000+0  17992-2 0  9998", "line2": "2 66792  43.0004 173.1659 0001644 272.8989  10.3669 15.50499110  5077"}}, "geometry": {"type": "Point", "coordinates": [-160.67265684696457, 23.480876303568337]}}, {"type": "Feature", "properties": {"norad_id": 66793, "name": "STARLINK-36051", "group": "last-30-days", "lat": 25.75958931309731, "lon": -157.2818599961398, "alt_km": 411.5942842465802, "timestamp": "2025-12-26T04:40:04.511398+00:00", "meta": {"OBJECT_NAME": "STARLINK-36051", "OBJECT_ID": "2025-278C", "EPOCH": "2025-12-25T22:00:01.999584", "MEAN_MOTION": 15.50497606, "ECCENTRICITY": 0.00015967, "INCLINATION": 43.0004, "RA_OF_ASC_NODE": 173.1563, "ARG_OF_PERICENTER": 275.2687, "MEAN_ANOMALY": 11.8351, "EPHEMERIS_TYPE": 0, "CLASSIFICATION_TYPE": "U", "NORAD_CAT_ID": 66793, "ELEMENT_SET_NO": 999, "REV_AT_EPOCH": 497, "BSTAR": 0.0018382977, "MEAN_MOTION_DOT": 0.00108696, "MEAN_MOTION_DDOT": 0}, "tle": {"line1": "1 66793U 25278C   25359.91668981  .00108696  00000+0  18383-2 0  9991", "line2": "2 66793  43.0004 173.1563 0001596 275.2687  11.8351 15.50497606  4970"}}, "geometry": {"type": "Point", "coordinates": [-157.2818599961398, 25.75958931309731]}}, {"type": "Feature", "properties": {"norad_id": 66794, "name": "STARLINK-36062", "group": "last-30-days", "lat": 24.63681938109978, "lon": -158.98245334644815, "alt_km": 411.8134895248104, "timestamp": "2025-12-26T04:40:04.511408+00:00", "meta": {"OBJECT_NAME": "STARLINK-36062", "OBJECT_ID": "2025-278D", "EPOCH": "2025-12-25T22:00:01.999584", "MEAN_MOTION": 15.50555525, "ECCENTRICITY": 0.00018924, "INCLINATION": 43.0003, "RA_OF_ASC_NODE": 173.1609, "ARG_OF_PERICENTER": 273.8714, "MEAN_ANOMALY": 11.2837, "EPHEMERIS_TYPE": 0, "CLASSIFICATION_TYPE": "U", "NORAD_CAT_ID": 66794, "ELEMENT_SET_NO": 999, "REV_AT_EPOCH": 507, "BSTAR": 0.00068628434, "MEAN_MOTION_DOT": 0.00040093, "MEAN_MOTION_DDOT": 0}, "tle": {"line1": "1 66794U 25278D   25359.91668981  .00040093  00000+0  68628-3 0  9996", "line2": "2 66794  43.0003 173.1609 0001892 273.8714  11.2837 15.50555525  5075"}}, "geometry": {"type": "Point", "coordinates": [-158.98245334644815, 24.63681938109978]}}, {"type": "Feature", "properties": {"norad_id": 66795, "name": "STARLINK-36047", "group": "last-30-days", "lat": 20.398721364061895, "lon": -164.9270809608211, "alt_km": 427.2666300381952, "timestamp": "2025-12-26T04:40:04.511418+00:00", "meta": {"OBJECT_NAME": "STARLINK-36047", "OBJECT_ID": "2025-278E", "EPOCH": "2025-12-25T22:00:01.999584", "MEAN_MOTION": 15.46616303, "ECCENTRICITY": 0.00011204, "INCLINATION": 43.0006, "RA_OF_ASC_NODE": 173.1677, "ARG_OF_PERICENTER": 268.0232, "MEAN_ANOMALY": 14.7646, "EPHEMERIS_TYPE": 0, "CLASSIFICATION_TYPE": "U", "NORAD_CAT_ID": 66795, "ELEMENT_SET_NO": 999, "REV_AT_EPOCH": 497, "BSTAR": -0.043538415, "MEAN_MOTION_DOT": -0.01984564, "MEAN_MOTION_DDOT": 0}, "tle": {"line1": "1 66795U 25278E   25359.91668981 -.01984564  00000+0 -43538-1 0  9991", "line2": "2 66795  43.0006 173.1677 0001120 268.0232  14.7646 15.46616303  4970"}}, "geometry": {"type": "Point", "coordinates": [-164.9270809608211, 20.398721364061895]}}, {"type": "Feature", "properties": {"norad_id": 66796, "name": "STARLINK-35964", "group": "last-30-days", "lat": 25.994626605172378, "lon": -42.993819413269804, "alt_km": 324.2434028176267, "timestamp": "2025-12-26T04:40:04.511428+00:00", "meta": {"OBJECT_NAME": "STARLINK-35964", "OBJECT_ID": "2025-278F", "EPOCH": "2025-12-25T20:29:52.712448", "MEAN_MOTION": 15.80922419, "ECCENTRICITY": 0.00020933, "INCLINATION": 42.9907, "RA_OF_ASC_NODE": 170.6551, "ARG_OF_PERICENTER": 269.6595, "MEAN_ANOMALY": 90.4036, "EPHEMERIS_TYPE": 0, "CLASSIFICATION_TYPE": "U", "NORAD_CAT_ID": 66796, "ELEMENT_SET_NO": 999, "REV_AT_EPOCH": 392, "BSTAR": 0.00099039699, "MEAN_MOTION_DOT": 0.002024, "MEAN_MOTION_DDOT": 0}, "tle": {"line1": "1 66796U 25278F   25359.85408232  .00202400  00000+0  99040-3 0  9996", "line2": "2 66796  42.9907 170.6551 0002093 269.6595  90.4036 15.80922419  3925"}}, "geometry": {"type": "Point", "coordinates": [-42.993819413269804, 25.994626605172378]}}, {"type": "Feature", "properties": {"norad_id": 66797, "name": "STARLINK-36099", "group": "last-30-days", "lat": 29.01654531735652, "lon": -151.95304996312913, "alt_km": 411.07950717570384, "timestamp": "2025-12-26T04:40:04.511438+00:00", "meta": {"OBJECT_NAME": "STARLINK-36099", "OBJECT_ID": "2025-278G", "EPOCH": "2025-12-25T22:00:01.999584", "MEAN_MOTION": 15.50502226, "ECCENTRICITY": 0.00015983, "INCLINATION": 43.0004, "RA_OF_ASC_NODE": 173.142, "ARG_OF_PERICENTER": 279.7787, "MEAN_ANOMALY": 13.0691, "EPHEMERIS_TYPE": 0, "CLASSIFICATION_TYPE": "U", "NORAD_CAT_ID": 66797, "ELEMENT_SET_NO": 999, "REV_AT_EPOCH": 513, "BSTAR": 0.0017773023, "MEAN_MOTION_DOT": 0.00105046, "MEAN_MOTION_DDOT": 0}, "tle": {"line1": "1 66797U 25278G   25359.91668981  .00105046  00000+0  17773-2 0  9993", "line2": "2 66797  43.0004 173.1420 0001598 279.7787  13.0691 15.50502226  5133"}}, "geometry": {"type": "Point", "coordinates": [-151.95304996312913, 29.01654531735652]}}, {"type": "Feature", "properties": {"norad_id": 66798, "name": "STARLINK-36041", "group": "last-30-days", "lat": 30.05466020276307, "lon": -150.10399272871385, "alt_km": 410.99429056476674, "timestamp": "2025-12-26T04:40:04.511451+00:00", "meta": {"OBJECT_NAME": "STARLINK-36041", "OBJECT_ID": "2025-278H", "EPOCH": "2025-12-25T22:00:01.999584", "MEAN_MOTION": 15.50502307, "ECCENTRICITY": 0.00016404, "INCLINATION": 43.0003, "RA_OF_ASC_NODE": 173.1368, "ARG_OF_PERICENTER": 277.6518, "MEAN_ANOMALY": 17.1133, "EPHEMERIS_TYPE": 0, "CLASSIFICATION_TYPE": "U", "NORAD_CAT_ID": 66798, "ELEMENT_SET_NO": 999, "REV_AT_EPOCH": 491, "BSTAR": 0.0017335642, "MEAN_MOTION_DOT": 0.00102419, "MEAN_MOTION_DDOT": 0}, "tle": {"line1": "1 66798U 25278H   25359.91668981  .00102419  00000+0  17336-2 0  9990", "line2": "2 66798  43.0003 173.1368 0001640 277.6518  17.1133 15.50502307  4912"}}, "geometry": {"type": "Point", "coordinates": [-150.10399272871385, 30.05466020276307]}}]}